[
    {
        "Altitude(m)": 705677.202278311,
        "Argument of Periapsis(deg)": 0.0,
        "Eccentricity": 0.0,
        "Inclination(deg)": 45.0,
        "Latitude(deg)": -11.613364124884995,
        "Longitude(deg)": -68.17444971717096,
        "Mean Anomaly(deg)": -163.63640000000004,
        "RAAN(deg)": 200.0,
        "Satellite Name": "Constellation 1 892",
        "Satellite Number": 892,
        "Semi-Major Axis(m)": 7083131.272910544,
        "Time(s)": 0
    },
    {
        "Altitude(m)": 705687.8667640026,
        "Argument of Periapsis(deg)": 5.994800624540561e-05,
        "Eccentricity": 0.0,
        "Inclination(deg)": 45.0,
        "Latitude(deg)": -11.655624349629855,
        "Longitude(deg)": -68.1339203760052,
        "Mean Anomaly(deg)": -163.57569885975013,
        "RAAN(deg)": 199.99994341083445,
        "Satellite Name": "Constellation 1 892",
        "Satellite Number": 892,
        "Semi-Major Axis(m)": 7083131.272910544,
        "Time(s)": 1
    },
    {
        "Altitude(m)": 705698.5468197479,
        "Argument of Periapsis(deg)": 0.00011989601249081122,
        "Eccentricity": 0.0,
        "Inclination(deg)": 45.0,
        "Latitude(deg)": -11.697877433898821,
        "Longitude(deg)": -68.0933776429994,
        "Mean Anomaly(deg)": -163.5149977195002,
        "RAAN(deg)": 199.99988682166887,
        "Satellite Name": "Constellation 1 892",
        "Satellite Number": 892,
        "Semi-Major Axis(m)": 7083131.272910544,
        "Time(s)": 2
    },
    {
        "Altitude(m)": 705709.2424154129,
        "Argument of Periapsis(deg)": 0.00017984401873621686,
        "Eccentricity": 0.0,
        "Inclination(deg)": 45.0,
        "Latitude(deg)": -11.740123349399363,
        "Longitude(deg)": -68.05282146616842,
        "Mean Anomaly(deg)": -163.45429657925035,
        "RAAN(deg)": 199.9998302325033,
        "Satellite Name": "Constellation 1 892",
        "Satellite Number": 892,
        "Semi-Major Axis(m)": 7083131.272910544,
        "Time(s)": 3
    },
    {
        "Altitude(m)": 705719.9535207882,
        "Argument of Periapsis(deg)": 0.00023979202498162244,
        "Eccentricity": 0.0,
        "Inclination(deg)": 45.0,
        "Latitude(deg)": -11.782362067813603,
        "Longitude(deg)": -68.01225179350112,
        "Mean Anomaly(deg)": -163.3935954390004,
        "RAAN(deg)": 199.9997736433377,
        "Satellite Name": "Constellation 1 892",
        "Satellite Number": 892,
        "Semi-Major Axis(m)": 7083131.272910544,
        "Time(s)": 4
    },
    {
        "Altitude(m)": 705730.6801055865,
        "Argument of Periapsis(deg)": 0.00029974003122702807,
        "Eccentricity": 0.0,
        "Inclination(deg)": 45.0,
        "Latitude(deg)": -11.824593560797684,
        "Longitude(deg)": -67.97166857296084,
        "Mean Anomaly(deg)": -163.33289429875052,
        "RAAN(deg)": 199.99971705417215,
        "Satellite Name": "Constellation 1 892",
        "Satellite Number": 892,
        "Semi-Major Axis(m)": 7083131.272910544,
        "Time(s)": 5
    },
    {
        "Altitude(m)": 705741.4221394421,
        "Argument of Periapsis(deg)": 0.00035968803747243373,
        "Eccentricity": 0.0,
        "Inclination(deg)": 45.0,
        "Latitude(deg)": -11.866817799982153,
        "Longitude(deg)": -67.93107175248484,
        "Mean Anomaly(deg)": -163.27219315850058,
        "RAAN(deg)": 199.9996604650066,
        "Satellite Name": "Constellation 1 892",
        "Satellite Number": 892,
        "Semi-Major Axis(m)": 7083131.272910544,
        "Time(s)": 6
    },
    {
        "Altitude(m)": 705752.1795919167,
        "Argument of Periapsis(deg)": 0.00041963604371783933,
        "Eccentricity": 0.0,
        "Inclination(deg)": 45.0,
        "Latitude(deg)": -11.909034756971534,
        "Longitude(deg)": -67.89046144808175,
        "Mean Anomaly(deg)": -163.2114920182507,
        "RAAN(deg)": 199.99960387584102,
        "Satellite Name": "Constellation 1 892",
        "Satellite Number": 892,
        "Semi-Major Axis(m)": 7083131.272910544,
        "Time(s)": 7
    },
    {
        "Altitude(m)": 705762.9524324987,
        "Argument of Periapsis(deg)": 0.0004795840499632449,
        "Eccentricity": 0.0,
        "Inclination(deg)": 45.0,
        "Latitude(deg)": -11.951244403344182,
        "Longitude(deg)": -67.84983727144277,
        "Mean Anomaly(deg)": -163.1507908780008,
        "RAAN(deg)": 199.99954728667547,
        "Satellite Name": "Constellation 1 892",
        "Satellite Number": 892,
        "Semi-Major Axis(m)": 7083131.272910544,
        "Time(s)": 8
    },
    {
        "Altitude(m)": 705773.740630596,
        "Argument of Periapsis(deg)": 0.0005395320562086505,
        "Eccentricity": 0.0,
        "Inclination(deg)": 45.0,
        "Latitude(deg)": -11.993446710652613,
        "Longitude(deg)": -67.80919933852441,
        "Mean Anomaly(deg)": -163.0900897377509,
        "RAAN(deg)": 199.99949069750986,
        "Satellite Name": "Constellation 1 892",
        "Satellite Number": 892,
        "Semi-Major Axis(m)": 7083131.272910544,
        "Time(s)": 9
    },
    {
        "Altitude(m)": 705784.5441555482,
        "Argument of Periapsis(deg)": 0.0005994800624540561,
        "Eccentricity": 0.0,
        "Inclination(deg)": 45.0,
        "Latitude(deg)": -12.035641650422841,
        "Longitude(deg)": -67.76854759716008,
        "Mean Anomaly(deg)": -163.02938859750105,
        "RAAN(deg)": 199.9994341083443,
        "Satellite Name": "Constellation 1 892",
        "Satellite Number": 892,
        "Semi-Major Axis(m)": 7083131.272910544,
        "Time(s)": 10
    },
    {
        "Altitude(m)": 705795.3629766165,
        "Argument of Periapsis(deg)": 0.0006594280686994618,
        "Eccentricity": 0.0,
        "Inclination(deg)": 45.0,
        "Latitude(deg)": -12.077829194154756,
        "Longitude(deg)": -67.72788199515674,
        "Mean Anomaly(deg)": -162.96868745725112,
        "RAAN(deg)": 199.99937751917875,
        "Satellite Name": "Constellation 1 892",
        "Satellite Number": 892,
        "Semi-Major Axis(m)": 7083131.272910544,
        "Time(s)": 11
    },
    {
        "Altitude(m)": 705806.1970629886,
        "Argument of Periapsis(deg)": 0.0007193760749448675,
        "Eccentricity": 0.0,
        "Inclination(deg)": 45.0,
        "Latitude(deg)": -12.120009313321729,
        "Longitude(deg)": -67.68720248029526,
        "Mean Anomaly(deg)": -162.9079863170012,
        "RAAN(deg)": 199.99932093001317,
        "Satellite Name": "Constellation 1 892",
        "Satellite Number": 892,
        "Semi-Major Axis(m)": 7083131.272910544,
        "Time(s)": 12
    },
    {
        "Altitude(m)": 705817.0463837741,
        "Argument of Periapsis(deg)": 0.000779324081190273,
        "Eccentricity": 0.0,
        "Inclination(deg)": 45.0,
        "Latitude(deg)": -12.162181979370446,
        "Longitude(deg)": -67.6465090003304,
        "Mean Anomaly(deg)": -162.84728517675137,
        "RAAN(deg)": 199.99926434084762,
        "Satellite Name": "Constellation 1 892",
        "Satellite Number": 892,
        "Semi-Major Axis(m)": 7083131.272910544,
        "Time(s)": 13
    },
    {
        "Altitude(m)": 705827.9109080196,
        "Argument of Periapsis(deg)": 0.0008392720874356787,
        "Eccentricity": 0.0,
        "Inclination(deg)": 45.0,
        "Latitude(deg)": -12.204347163721245,
        "Longitude(deg)": -67.6058015029901,
        "Mean Anomaly(deg)": -162.7865840365014,
        "RAAN(deg)": 199.999207751682,
        "Satellite Name": "Constellation 1 892",
        "Satellite Number": 892,
        "Semi-Major Axis(m)": 7083131.272910544,
        "Time(s)": 14
    },
    {
        "Altitude(m)": 705838.7906046768,
        "Argument of Periapsis(deg)": 0.0008992200936810842,
        "Eccentricity": 0.0,
        "Inclination(deg)": 45.0,
        "Latitude(deg)": -12.246504837767503,
        "Longitude(deg)": -67.56508010407343,
        "Mean Anomaly(deg)": -162.72588289625153,
        "RAAN(deg)": 199.99915116251645,
        "Satellite Name": "Constellation 1 892",
        "Satellite Number": 892,
        "Semi-Major Axis(m)": 7083131.272910544,
        "Time(s)": 15
    },
    {
        "Altitude(m)": 705849.6854426409,
        "Argument of Periapsis(deg)": 0.0009591680999264898,
        "Eccentricity": 0.0,
        "Inclination(deg)": 45.0,
        "Latitude(deg)": -12.288654972875586,
        "Longitude(deg)": -67.52434441506138,
        "Mean Anomaly(deg)": -162.66518175600163,
        "RAAN(deg)": 199.99909457335087,
        "Satellite Name": "Constellation 1 892",
        "Satellite Number": 892,
        "Semi-Major Axis(m)": 7083131.272910544,
        "Time(s)": 16
    },
    {
        "Altitude(m)": 705860.5953907295,
        "Argument of Periapsis(deg)": 0.0010191161061718953,
        "Eccentricity": 0.0,
        "Inclination(deg)": 45.0,
        "Latitude(deg)": -12.330797540385252,
        "Longitude(deg)": -67.48359455169972,
        "Mean Anomaly(deg)": -162.60448061575175,
        "RAAN(deg)": 199.99903798418532,
        "Satellite Name": "Constellation 1 892",
        "Satellite Number": 892,
        "Semi-Major Axis(m)": 7083131.272910544,
        "Time(s)": 17
    },
    {
        "Altitude(m)": 705871.5204176803,
        "Argument of Periapsis(deg)": 0.001079064112417301,
        "Eccentricity": 0.0,
        "Inclination(deg)": 45.0,
        "Latitude(deg)": -12.372932511608983,
        "Longitude(deg)": -67.44283046161064,
        "Mean Anomaly(deg)": -162.54377947550185,
        "RAAN(deg)": 199.9989813950197,
        "Satellite Name": "Constellation 1 892",
        "Satellite Number": 892,
        "Semi-Major Axis(m)": 7083131.272910544,
        "Time(s)": 18
    }
]